COMMENT,ORIGINATOR,NORAD_CAT_ID,OBJECT_NAME,OBJECT_TYPE,CLASSIFICATION_TYPE,INTLDES,EPOCH,EPOCH_MICROSECONDS,MEAN_MOTION,ECCENTRICITY,INCLINATION,RA_OF_ASC_NODE,ARG_OF_PERICENTER,MEAN_ANOMALY,EPHEMERIS_TYPE,ELEMENT_SET_NO,REV_AT_EPOCH,BSTAR,MEAN_MOTION_DOT,MEAN_MOTION_DDOT,FILE,TLE_LINE0,TLE_LINE1,TLE_LINE2,OBJECT_ID,OBJECT_NUMBER,SEMIMAJOR_AXIS,PERIOD,APOGEE,PERIGEE,DECAYED
"GENERATED VIA SPACETRACK.ORG API","18 SPCS","55100","SPACEBEE-158","PAYLOAD","U","23001CV","2024-03-26 11:03:22","898016","15.37737378","0.0011052","97.4319","151.4031","89.9705","270.2806","0","999","6833","0.0032534","0.00122515","0","4246985","0 SPACEBEE-158","1 55100U 23001CV  24086.46068169  .00122515  00000-0  32534-2 0  9992","2 55100  97.4319 151.4031 0011052  89.9705 270.2806 15.37737378 68334","2023-001CV","55100","6830.939","93.644","460.353","445.254","0"
"GENERATED VIA SPACETRACK.ORG API","18 SPCS","55100","SPACEBEE-158","PAYLOAD","U","23001CV","2024-03-26 17:18:12","30912","15.37754132","0.0011044","97.4319","151.6663","89.1322","271.1188","0","999","6837","0.0018547","0.00069369","0","4247269","0 SPACEBEE-158","1 55100U 23001CV  24086.72097258  .00069369  00000-0  18547-2 0  9997","2 55100  97.4319 151.6663 0011044  89.1322 271.1188 15.37754132 68379","2023-001CV","55100","6830.889","93.643","460.298","445.210","0"
"GENERATED VIA SPACETRACK.ORG API","18 SPCS","55100","SPACEBEE-158","PAYLOAD","U","23001CV","2024-03-26 21:59:18","485952","15.37778879","0.0011022","97.4317","151.8637","88.9225","271.3282","0","999","6840","0.0016201","0.00060563","0","4247357","0 SPACEBEE-158","1 55100U 23001CV  24086.91618618  .00060563  00000-0  16201-2 0  9999","2 55100  97.4317 151.8637 0011022  88.9225 271.3282 15.37778879 68400","2023-001CV","55100","6830.816","93.642","460.210","445.152","0"
"GENERATED VIA SPACETRACK.ORG API","18 SPCS","55100","SPACEBEE-158","PAYLOAD","U","23001CV","2024-03-27 04:14:06","750528","15.37817597","0.0011026","97.4316","152.1273","88.2279","272.0228","0","999","6844","0.0016993","0.00063633","0","4247956","0 SPACEBEE-158","1 55100U 23001CV  24087.17646702  .00063633  00000-0  16993-2 0  9992","2 55100  97.4316 152.1273 0011026  88.2279 272.0228 15.37817597 68448","2023-001CV","55100","6830.701","93.639","460.098","445.035","0"
"GENERATED VIA SPACETRACK.ORG API","18 SPCS","55100","SPACEBEE-158","PAYLOAD","U","23001CV","2024-03-27 16:43:41","945664","15.37872932","0.0010981","97.4311","152.6545","86.262","273.9881","0","999","6852","0.0014269","0.00053444","0","4248192","0 SPACEBEE-158","1 55100U 23001CV  24087.69701326  .00053444  00000-0  14269-2 0  9996","2 55100  97.4311 152.6545 0010981  86.2620 273.9881 15.37872932 68525","2023-001CV","55100","6830.537","93.636","459.903","444.902","0"
"GENERATED VIA SPACETRACK.ORG API","18 SPCS","55100","SPACEBEE-158","PAYLOAD","U","23001CV","2024-03-27 16:43:41","945664","15.37872932","0.0010981","97.4311","152.6545","86.262","273.9881","0","999","6852","0.0014269","0.00053444","0","4248304","0 SPACEBEE-158","1 55100U 23001CV  24087.69701326  .00053444  00000-0  14269-2 0  9996","2 55100  97.4311 152.6545 0010981  86.2620 273.9881 15.37872932 68525","2023-001CV","55100","6830.537","93.636","459.903","444.902","0"
"GENERATED VIA SPACETRACK.ORG API","18 SPCS","55100","SPACEBEE-158","PAYLOAD","U","23001CV","2024-03-28 14:35:24","220608","15.37978147","0.0010851","97.4308","153.5769","83.0588","277.1891","0","999","6866","0.0014299","0.00053739","0","4249182","0 SPACEBEE-158","1 55100U 23001CV  24088.60791922  .00053739  00000-0  14299-2 0  9999","2 55100  97.4308 153.5769 0010851  83.0588 277.1891 15.37978147 68660","2023-001CV","55100","6830.226","93.629","459.502","444.679","0"
"GENERATED VIA SPACETRACK.ORG API","18 SPCS","55100","SPACEBEE-158","PAYLOAD","U","23001CV","2024-03-28 14:35:24","220608","15.37978147","0.0010851","97.4308","153.5769","83.0588","277.1891","0","999","6866","0.0014299","0.00053739","0","4249342","0 SPACEBEE-158","1 55100U 23001CV  24088.60791922  .00053739  00000-0  14299-2 0  9999","2 55100  97.4308 153.5769 0010851  83.0588 277.1891 15.37978147 68660","2023-001CV","55100","6830.226","93.629","459.502","444.679","0"
"GENERATED VIA SPACETRACK.ORG API","18 SPCS","55100","SPACEBEE-158","PAYLOAD","U","23001CV","2024-03-29 03:04:54","433056","15.38044676","0.0010785","97.4306","154.1034","81.7493","278.4975","0","999","6874","0.001409","0.0005306","0","4250171","0 SPACEBEE-158","1 55100U 23001CV  24089.12840779  .00053060  00000-0  14090-2 0  9998","2 55100  97.4306 154.1034 0010785  81.7493 278.4975 15.38044676 68744","2023-001CV","55100","6830.029","93.625","459.260","444.528","0"
"GENERATED VIA SPACETRACK.ORG API","18 SPCS","55100","SPACEBEE-158","PAYLOAD","U","23001CV","2024-03-29 03:04:54","433056","15.38044676","0.0010785","97.4306","154.1034","81.7493","278.4975","0","999","6874","0.001409","0.0005306","0","4250244","0 SPACEBEE-158","1 55100U 23001CV  24089.12840779  .00053060  00000-0  14090-2 0  9998","2 55100  97.4306 154.1034 0010785  81.7493 278.4975 15.38044676 68744","2023-001CV","55100","6830.029","93.625","459.260","444.528","0"
"GENERATED VIA SPACETRACK.ORG API","18 SPCS","55100","SPACEBEE-158","PAYLOAD","U","23001CV","2024-03-29 21:49:06","473280","15.38132622","0.0010721","97.4305","154.894","79.0282","281.2169","0","999","6886","0.0014171","0.0005352","0","4251655","0 SPACEBEE-158","1 55100U 23001CV  24089.90910270  .00053520  00000-0  14171-2 0  9999","2 55100  97.4305 154.8940 0010721  79.0282 281.2169 15.38132622 68861","2023-001CV","55100","6829.769","93.620","458.956","444.311","0"
"GENERATED VIA SPACETRACK.ORG API","18 SPCS","55100","SPACEBEE-158","PAYLOAD","U","23001CV","2024-03-30 04:03:49","592736","15.38164735","0.0010662","97.4306","155.1575","78.2557","281.9884","0","999","6890","0.0012772","0.00048245","0","4252415","0 SPACEBEE-158","1 55100U 23001CV  24090.16932399  .00048245  00000-0  12772-2 0  9998","2 55100  97.4306 155.1575 0010662  78.2557 281.9884 15.38164735 68906","2023-001CV","55100","6829.673","93.618","458.820","444.257","0"
"GENERATED VIA SPACETRACK.ORG API","18 SPCS","55100","SPACEBEE-158","PAYLOAD","U","23001CV","2024-03-30 10:18:32","304384","15.38189017","0.0010657","97.4303","155.4216","77.2783","282.9653","0","999","6894","0.0013143","0.00049697","0","4253807","0 SPACEBEE-158","1 55100U 23001CV  24090.42954056  .00049697  00000-0  13143-2 0  9996","2 55100  97.4303 155.4216 0010657  77.2783 282.9653 15.38189017 68941","2023-001CV","55100","6829.602","93.617","458.745","444.188","0"
"GENERATED VIA SPACETRACK.ORG API","18 SPCS","55100","SPACEBEE-158","PAYLOAD","U","23001CV","2024-03-30 19:40:35","725152","15.38228394","0.0010556","97.4301","155.8167","75.7959","284.4458","0","999","6900","0.0014523","0.0005503","0","4254317","0 SPACEBEE-158","1 55100U 23001CV  24090.81985793  .00055030  00000-0  14523-2 0  9992","2 55100  97.4301 155.8167 0010556  75.7959 284.4458 15.38228394 69004","2023-001CV","55100","6829.485","93.614","458.559","444.141","0"
"GENERATED VIA SPACETRACK.ORG API","18 SPCS","55100","SPACEBEE-158","PAYLOAD","U","23001CV","2024-03-31 03:28:57","941184","15.38265563","0.0010484","97.4303","156.146","74.8834","285.357","0","999","6905","0.0018863","0.00071738","0","4255393","0 SPACEBEE-158","1 55100U 23001CV  24091.14511506  .00071738  00000-0  18863-2 0  9990","2 55100  97.4303 156.1460 0010484  74.8834 285.3570 15.38265563 69057","2023-001CV","55100","6829.375","93.612","458.400","444.080","0"
"GENERATED VIA SPACETRACK.ORG API","18 SPCS","55100","SPACEBEE-158","PAYLOAD","U","23001CV","2024-03-31 03:28:57","941184","15.38265563","0.0010484","97.4303","156.146","74.8834","285.357","0","999","6905","0.0018863","0.00071738","0","4255611","0 SPACEBEE-158","1 55100U 23001CV  24091.14511506  .00071738  00000-0  18863-2 0  9990","2 55100  97.4303 156.1460 0010484  74.8834 285.3570 15.38265563 69057","2023-001CV","55100","6829.375","93.612","458.400","444.080","0"
"GENERATED VIA SPACETRACK.ORG API","18 SPCS","55100","SPACEBEE-158","PAYLOAD","U","23001CV","2024-03-31 17:32:00","18528","15.38330475","0.0010426","97.4303","156.7394","72.6118","287.6266","0","999","6914","0.0014247","0.00054153","0","4255973","0 SPACEBEE-158","1 55100U 23001CV  24091.73055577  .00054153  00000-0  14247-2 0  9990","2 55100  97.4303 156.7394 0010426  72.6118 287.6266 15.38330475 69148","2023-001CV","55100","6829.183","93.608","458.168","443.928","0"
"GENERATED VIA SPACETRACK.ORG API","18 SPCS","55100","SPACEBEE-158","PAYLOAD","U","23001CV","2024-03-31 17:32:00","18528","15.38330475","0.0010426","97.4303","156.7394","72.6118","287.6266","0","999","6914","0.0014247","0.00054153","0","4256238","0 SPACEBEE-158","1 55100U 23001CV  24091.73055577  .00054153  00000-0  14247-2 0  9990","2 55100  97.4303 156.7394 0010426  72.6118 287.6266 15.38330475 69148","2023-001CV","55100","6829.183","93.608","458.168","443.928","0"
"GENERATED VIA SPACETRACK.ORG API","18 SPCS","55100","SPACEBEE-158","PAYLOAD","U","23001CV","2024-04-01 10:42:19","742976","15.38405526","0.0010446","97.4304","157.4643","70.4678","289.7694","0","999","6925","0.0013592","0.0005177","0","4257565","0 SPACEBEE-158","1 55100U 23001CV  24092.44606184  .00051770  00000-0  13592-2 0  9999","2 55100  97.4304 157.4643 0010446  70.4678 289.7694 15.38405526 69253","2023-001CV","55100","6828.961","93.603","457.959","443.692","0"
"GENERATED VIA SPACETRACK.ORG API","18 SPCS","55100","SPACEBEE-158","PAYLOAD","U","23001CV","2024-04-02 03:52:36","551424","15.38480665","0.0010221","97.4303","158.1888","68.0209","292.2122","0","999","6936","0.0012027","0.00045873","0","4258778","0 SPACEBEE-158","1 55100U 23001CV  24093.16153416  .00045873  00000-0  12027-2 0  9993","2 55100  97.4303 158.1888 0010221  68.0209 292.2122 15.38480665 69369","2023-001CV","55100","6828.738","93.599","457.583","443.624","0"
